      2.10          N: GNSS NAV DATA                        RINEX VERSION / TYPE
fic2rin                                 07/26/2024 00:59:02 PGM / RUN BY / DATE
                                                            END OF HEADER
21 24  7 25 13 59 44.0  .106765422970D-03 -.216004991671D-11  .000000000000D+00
     .900000000000D+01  .348750000000D+02  .434232373236D-08 -.188946356134D+01
     .168755650520D-05  .252516909968D-01  .119656324387D-04  .515367690468D+04
     .395984000000D+06 -.655651092529D-06  .925878570216D+00 -.109896063805D-06
     .961503599559D+00  .157531250000D+03 -.543028152925D+00 -.801176229349D-08
     .835749098019D-10  .100000000000D+01  .232400000000D+04  .000000000000D+00
     .240000000000D+01  .000000000000D+00 -.102445483208D-07  .900000000000D+01
     .389820000000D+06  .400000000000D+01
19 24  7 25 13 59 44.0  .515413470566D-03  .534328137292D-11  .000000000000D+00
     .600000000000D+01 -.404687500000D+02  .467019453235D-08  .200623437000D+00
    -.216066837311D-05  .998374412302D-02  .816397368908D-05  .515371800995D+04
     .395984000000D+06  .186264514923D-07  .755703980961D-01 -.875443220139D-07
     .967539110939D+00  .226125000000D+03  .260404139385D+01 -.825605818368D-08
    -.352871841386D-09  .100000000000D+01  .232400000000D+04  .000000000000D+00
     .240000000000D+01  .000000000000D+00 -.153668224812D-07  .600000000000D+01
     .390870000000D+06  .400000000000D+01
8  24  7 25 13 59 44.0  .289144460112D-03  .156887836056D-10  .000000000000D+00
     .800000000000D+01 -.386250000000D+02  .498306470750D-08 -.171325544296D+01
    -.230967998505D-05  .951813545544D-02  .637397170067D-05  .515365850639D+04
     .395984000000D+06  .987201929092D-07 -.642844620259D-01 -.137835741043D-06
     .952514471205D+00  .249343750000D+03  .366976606277D+00 -.834141888215D-08
    -.190365072327D-09  .100000000000D+01  .232400000000D+04  .000000000000D+00
     .240000000000D+01  .000000000000D+00  .465661287308D-08  .800000000000D+01
     .393630000000D+06  .400000000000D+01
12 24  7 25 13 59 44.0 -.525113660842D-03 -.306954461848D-11  .000000000000D+00
     .100000000000D+02  .506875000000D+02  .491877631535D-08  .989879773266D+00
     .251270830631D-05  .866928498726D-02  .541657209396D-05  .515361170578D+04
     .395984000000D+06 -.987201929092D-07 -.100732548390D+01 -.633299350739D-07
     .961716364901D+00  .273312500000D+03  .145947381274D+01 -.853321258541D-08
     .321799118511D-09  .100000000000D+01  .232400000000D+04  .000000000000D+00
     .240000000000D+01  .000000000000D+00 -.125728547573D-07  .100000000000D+02
     .394950000000D+06  .400000000000D+01
12 24  7 25 15 59 44.0 -.525135546923D-03 -.306954461848D-11  .000000000000D+00
     .110000000000D+02  .505937500000D+02  .470448167483D-08  .203998573337D+01
     .254809856415D-05  .866919825785D-02  .507384538651D-05  .515361357117D+04
     .403184000000D+06  .201165676117D-06 -.100738613795D+01 -.132247805595D-06
     .961720162636D+00  .280656250000D+03  .145958850990D+01 -.822819988041D-08
     .345371528968D-09  .100000000000D+01  .232400000000D+04  .000000000000D+00
     .240000000000D+01  .000000000000D+00 -.125728547573D-07  .110000000000D+02
     .396000000000D+06  .400000000000D+01
10 24  7 25 15 59 44.0 -.755097717047D-04 -.102318153949D-10  .000000000000D+00
     .320000000000D+02  .397187500000D+02  .448732977244D-08  .130949780362D+01
     .216998159885D-05  .944727042224D-02  .504963099957D-05  .515368401146D+04
     .403184000000D+06 -.763684511185D-07  .206691820735D+01  .150874257088D-06
     .984761047776D+00  .298343750000D+03 -.237872163069D+01 -.836141971526D-08
     .231081054025D-09  .100000000000D+01  .232400000000D+04  .000000000000D+00
     .240000000000D+01  .000000000000D+00  .232830643654D-08  .320000000000D+02
     .396000000000D+06  .400000000000D+01
8  24  7 25 15 59 44.0  .289256684482D-03  .156887836056D-10  .000000000000D+00
     .180000000000D+02 -.360625000000D+02  .498163607657D-08 -.663114432806D+00
    -.174716114998D-05  .951823021751D-02  .612810254097D-05  .515365767288D+04
     .403184000000D+06  .227242708206D-06 -.643441593239D-01  .391155481339D-07
     .952512181739D+00  .253687500000D+03  .367029206960D+00 -.849999691613D-08
    -.308584282345D-09  .100000000000D+01  .232400000000D+04  .000000000000D+00
     .240000000000D+01  .000000000000D+00  .465661287308D-08  .180000000000D+02
     .396000000000D+06  .400000000000D+01
21 24  7 25 15 59 44.0  .106750056148D-03 -.216004991671D-11  .000000000000D+00
     .100000000000D+02  .111562500000D+02  .452590280773D-08 -.839432354893D+00
     .264495611191D-06  .252515210304D-01  .110883265734D-04  .515366977501D+04
     .403184000000D+06 -.203028321266D-06  .925818176569D+00 -.385567545891D-06
     .961504884001D+00  .171625000000D+03 -.542877169539D+00 -.824820071352D-08
     .303584074067D-09  .100000000000D+01  .232400000000D+04  .000000000000D+00
     .240000000000D+01  .000000000000D+00 -.102445483208D-07  .100000000000D+02
     .396000000000D+06  .400000000000D+01
19 24  7 25 15 59 44.0  .515451654792D-03  .534328137292D-11  .000000000000D+00
     .700000000000D+01 -.358437500000D+02  .450661629009D-08  .125063049799D+01
    -.191293656826D-05  .998554588296D-02  .734254717827D-05  .515372244072D+04
     .403184000000D+06  .145286321640D-06  .755118345596D-01  .484287738800D-07
     .967537231089D+00  .241750000000D+03  .260418699662D+01 -.807855078978D-08
    -.391444876679D-09  .100000000000D+01  .232400000000D+04  .000000000000D+00
     .240000000000D+01  .000000000000D+00 -.153668224812D-07  .700000000000D+01
     .396000000000D+06  .400000000000D+01
2  24  7 25 16  0  0.0 -.392101239413D-03  .750333128963D-11  .000000000000D+00
     .690000000000D+02  .147500000000D+02  .440089760076D-08 -.471612499228D+00
     .609084963799D-06  .160192071926D-01  .111479312181D-04  .515369466972D+04
     .403200000000D+06 -.245869159698D-06  .933358013925D+00 -.912696123123D-07
     .967244157396D+00  .174125000000D+03 -.115626200195D+01 -.819712715753D-08
     .142863093678D-09  .100000000000D+01  .232400000000D+04  .000000000000D+00
     .340000000000D+01  .000000000000D+00 -.176951289177D-07  .690000000000D+02
     .396000000000D+06  .400000000000D+01
1  24  7 25 16  0  0.0  .235523562878D-03 -.761701812735D-11  .000000000000D+00
     .260000000000D+02  .544687500000D+02  .625668918765D-08  .754484352010D+00
     .281818211079D-05  .133293495746D-01  .612623989582D-05  .515359454727D+04
     .403200000000D+06 -.162050127983D-06 -.106039690999D+01 -.558793544769D-08
     .953740991963D+00  .258187500000D+03  .103506138957D+01 -.862464496537D-08
     .235724104569D-09  .100000000000D+01  .232400000000D+04  .000000000000D+00
     .240000000000D+01  .630000000000D+02 -.195577740669D-07  .260000000000D+02
     .396000000000D+06  .400000000000D+01
5  24  7 25 16  0  0.0 -.180960632861D-03 -.125055521494D-11  .000000000000D+00
     .870000000000D+02  .428437500000D+02  .472341103474D-08 -.323687433967D+00
     .240094959736D-05  .595976179466D-02  .455975532532D-05  .515364215088D+04
     .403200000000D+06 -.186264514923D-07  .201734526646D+01  .465661287308D-07
     .972029375599D+00  .296125000000D+03  .129587603211D+01 -.843999441679D-08
     .232866842696D-09  .100000000000D+01  .232400000000D+04  .000000000000D+00
     .240000000000D+01  .000000000000D+00 -.107102096081D-07  .870000000000D+02
     .396000000000D+06  .400000000000D+01
22 24  7 25 16  0  0.0 -.437721610069D-04 -.443378667114D-11  .000000000000D+00
     .230000000000D+02  .455937500000D+02  .482305804258D-08 -.157964026053D+00
     .228732824326D-05  .142126102000D-01  .554695725441D-05  .515369237518D+04
     .403200000000D+06 -.219792127609D-06 -.986284842265D+00 -.163912773132D-06
     .960508623622D+00  .273750000000D+03 -.113003807624D+01 -.853821279369D-08
     .272868508926D-09  .100000000000D+01  .232400000000D+04  .000000000000D+00
     .240000000000D+01  .000000000000D+00 -.111758708954D-07  .230000000000D+02
     .396000000000D+06  .400000000000D+01
